352P/Skiff,e,21.0098,28.0458,309.2278,6.639230,0.0576139,0.61824415,89.6037,09/25.0/2021,2000,g 11.5,4.0
# From MPEC 2020-AA5
353P/McNaught,e,28.4225,121.5588,230.3963,4.171042,0.1157010,0.47026499,158.8290,09/25.0/2021,2000,g 14.5,4.0
# From MPC105545
354P/LINEAR,e,5.2556,320.1292,132.9136,2.289386,0.2845283,0.12569441,146.7873,09/25.0/2021,2000,g 15.5,4.0
# From MPEC 2020-AA5
355P/LINEAR-NEAT,e,11.0415,51.4303,336.2596,3.471349,0.1523901,0.50738447,219.8432,09/25.0/2021,2000,g 15.5,2.0
# From MPEC 2021-F20
356P/WISE,e,9.6379,160.7970,225.9871,4.159013,0.1162033,0.35524659,160.0368,09/25.0/2021,2000,g 14.0,4.0
# From MPC114609
357P/Hill,e,6.3127,44.5649,1.3876,4.459880,0.1046452,0.43502012,127.1190,09/25.0/2021,2000,g 15.5,4.0
# From MPEC 2020-HN5
358P/PANSTARRS,e,11.0586,85.7049,299.7379,3.147266,0.1765240,0.23859989,222.7846,09/25.0/2021,2000,g 18.0,4.0
# From MPC110086
359P/LONEOS,e,10.2676,149.7558,200.1765,4.639603,0.0986241,0.32419602,147.4387,09/25.0/2021,2000,g 13.5,4.0
# From MPC108599
360P/WISE,e,24.1085,2.1904,354.1385,3.701786,0.1383844,0.49905847,207.1639,09/25.0/2021,2000,g 19.5,6.0
# From MPC114609
361P/Spacewatch,e,13.8953,203.2506,219.0329,4.937811,0.0898261,0.43824041,106.0534,09/25.0/2021,2000,g 12.0,4.0
# From MPEC 2017-V13
362P/,e,15.5562,192.5601,53.6999,3.969435,0.1246267,0.27926923,231.6919,09/25.0/2021,2000,g 12.9,2.0
# From MPC114609
363P/Lemmon,e,5.4095,146.8885,341.2419,3.555065,0.1470391,0.52375731,191.8576,09/25.0/2021,2000,g 17.5,4.0
# From MPEC 2021-F20
364P/PANSTARRS,e,12.1380,46.1808,212.0146,2.879410,0.2017200,0.72209391,239.7938,09/25.0/2021,2000,g 17.0,2.0
# From MPC111775
365P/PANSTARRS,e,9.8217,87.0893,66.5274,3.173156,0.1743680,0.57838932,230.0199,09/25.0/2021,2000,g 17.0,4.0
# From MPC114610
366P/Spacewatch,e,8.8584,70.7605,153.1264,3.495974,0.1507828,0.34815986,175.3052,09/25.0/2021,2000,g 15.0,4.0
# From MPC112395
367P/Catalina,e,8.4617,58.7217,172.8964,3.506084,0.1501311,0.28009730,179.0262,09/25.0/2021,2000,g 17.5,2.0
# From MPC114610
368P/NEAT,e,15.4810,257.9274,118.8063,5.527293,0.0758465,0.62653913,83.8990,09/25.0/2021,2000,g 14.0,4.0
# From MPC114610
369P/Hill,e,10.3163,47.2926,13.1679,4.383643,0.1073869,0.55461479,115.5172,09/25.0/2021,2000,g 15.0,4.0
# From MPEC 2021-F20
370P/NEAT,e,19.4086,55.1060,356.6787,6.434327,0.0603878,0.61475938,72.6621,09/25.0/2021,2000,g 13.0,4.0
# From MPC114610
371P/LINEAR-Skiff,e,17.3784,67.2887,308.4743,4.180879,0.1152929,0.47680184,125.1874,09/25.0/2021,2000,g 16.0,4.0
# From MPEC 2020-K19
372P/McNaught,e,9.5101,325.8157,27.3670,4.505142,0.1030722,0.15275361,110.1310,09/25.0/2021,2000,g 13.5,4.0
# From MPEC 2021-F20
373P/Rinner,e,13.7632,231.9489,221.0746,3.803023,0.1328956,0.39226907,119.6441,09/25.0/2021,2000,g 14.5,4.0
# From MPC114610
374P/Larson,e,10.7651,7.9126,51.4711,4.972994,0.0888745,0.46268246,87.8232,09/25.0/2021,2000,g 14.0,4.0
# From MPEC 2021-F20
375P/Hill,e,17.3614,359.9490,119.4375,5.554926,0.0752812,0.65854258,75.9684,09/25.0/2021,2000,g 16.0,4.0
# From MPEC 2021-S45
376P/LONEOS,e,1.1884,314.7026,284.6486,5.820888,0.0701811,0.51714866,51.2152,09/25.0/2021,2000,g 12.5,4.0
# From MPEC 2021-N06
377P/Scotti,e,9.0235,226.0615,355.0519,6.709511,0.0567111,0.25217140,24.9489,09/25.0/2021,2000,g  9.5,4.0
# From MPEC 2021-S45
378P/McNaught,e,19.0495,94.3518,193.8531,6.371343,0.0612855,0.46989694,20.8928,09/25.0/2021,2000,g 12.0,4.0
# From MPC115889
379P/Spacewatch,e,12.4300,183.8220,30.8886,3.518983,0.1493063,0.34051230,117.3310,09/25.0/2021,2000,g 15.0,4.0
# From MPEC 2020-KB7
380P/PANSTARRS,e,8.2774,132.9581,87.8879,4.495400,0.1034074,0.33412113,87.5833,09/25.0/2021,2000,g 12.5,4.0
# From MPEC 2021-J28
381P/LINEAR-Spacewatch,e,28.3770,173.7647,173.1915,7.126407,0.0518082,0.68190852,37.7625,09/25.0/2021,2000,g 17.5,2.0
# From MPEC 2021-S45
382P/Larson,e,8.0205,174.3878,172.8006,6.453523,0.0601186,0.31619975,350.0454,09/25.0/2021,2000,g  8.0,4.0
# From MPC118844
383P/Christensen,e,12.3218,207.8573,133.7015,3.545614,0.1476274,0.59962957,103.2835,09/25.0/2021,2000,g 18.0,4.0
# From MPEC 2021-S45
384P/Kowalski,e,7.2844,354.2300,37.6159,2.900855,0.1994872,0.61571866,142.5099,09/25.0/2021,2000,g 19.5,4.0
# From MPEC 2021-F20
385P/Hill,e,16.8311,357.0608,44.3203,4.288318,0.1109874,0.40159928,82.2486,09/25.0/2021,2000,g 13.0,4.0
# From MPEC 2021-L04
386P/PANSTARRS,e,15.2296,134.9479,353.2020,4.055917,0.1206620,0.41623838,48.4815,09/25.0/2021,2000,g 14.5,4.0
# From MPEC 2021-J28
387P/Boattini,e,8.9201,259.3071,162.7695,4.797964,0.0937818,0.73621115,70.3092,09/25.0/2021,2000,g 15.0,4.0
# From MPEC 2021-S45
388P/Gibbs,e,23.8724,37.0418,42.3449,5.243243,0.0820926,0.61809068,65.2154,09/25.0/2021,2000,g 13.0,4.0
# From MPEC 2021-J28
389P/Siding Spring,e,160.0721,218.8554,249.3275,5.628425,0.0738114,0.70429810,46.9284,09/25.0/2021,2000,g 16.0,4.0
# From MPEC 2021-S45
390P/Gibbs,e,18.5623,152.2748,232.3534,5.804606,0.0704766,0.70721063,38.8790,09/25.0/2021,2000,g 12.0,4.0
# From MPEC 2021-F20
391P/Kowalski,e,21.2755,124.7319,187.0737,4.679915,0.0973525,0.12057353,124.9336,09/25.0/2021,2000,g  8.0,4.0
# From MPEC 2021-J28
392P/LINEAR,e,4.9309,24.8816,71.9439,6.144221,0.0647148,0.68279602,35.0900,09/25.0/2021,2000,g 14.5,4.0
# From MPEC 2021-BE3
393P/Spacewatch-Hill,e,16.7898,36.4119,328.3357,4.787699,0.0940836,0.12064200,65.8156,09/25.0/2021,2000,g 11.0,4.0
# From MPEC 2020-KB7
394P/PANSTARRS,e,8.5294,98.1252,54.5189,4.331808,0.1093202,0.36773102,72.6743,09/25.0/2021,2000,g 16.0,2.4
# From MPEC 2021-S45
395P/Catalina-NEAT,e,3.2766,223.7147,89.8102,6.550857,0.0587837,0.37949055,354.3242,09/25.0/2021,2000,g 10.0,4.0
# From MPEC 2020-KB7
396P/,e,5.4363,136.6644,8.5626,6.815434,0.0553941,0.41580897,42.0269,09/25.0/2021,2000,g 12.0,4.0
# From MPEC 2021-O56
397P/Lemmon,e,10.9287,8.1995,14.4490,3.827991,0.1315975,0.40514485,60.8721,09/25.0/2021,2000,g 12.0,4.0
# From MPEC 2021-L04
398P/Boattini,e,11.0154,127.4616,320.2232,3.127908,0.1781653,0.58264901,48.5071,09/25.0/2021,2000,g 15.5,4.0
# From MPEC 2021-F20
399P/PANSTARRS,e,13.3187,207.1437,214.2966,3.789967,0.1335829,0.44695474,16.7544,09/25.0/2021,2000,g 15.6,4.0
# From MPEC 2020-FB5
400P/PANSTARRS,e,10.9293,176.3933,238.7971,3.560235,0.1467189,0.40921527,33.2871,09/25.0/2021,2000,g 15.5,2.8
# From MPEC 2021-R75
401P/McNaught,e,12.8028,359.8820,309.3509,5.773385,0.0710490,0.58005354,46.7418,09/25.0/2021,2000,g 12.5,4.0
# From MPEC 2021-S45
402P/LINEAR,e,30.8524,123.0899,326.7350,7.012919,0.0530708,0.43848301,355.7244,09/25.0/2021,2000,g  8.0,4.0
# From MPEC 2021-J28
403P/Catalina,e,12.3214,163.8124,277.6576,5.427355,0.0779510,0.50346580,29.1271,09/25.0/2021,2000,g 12.0,4.0
# From MPEC 2021-S45
404P/Bressi,e,9.7205,261.4217,163.7545,4.812094,0.0933690,0.13668275,291.3687,09/25.0/2021,2000,g 10.0,4.0
# From MPEC 2021-L04
405P/Lemmon,e,9.3655,3.3146,112.2319,3.608366,0.1437932,0.68912443,39.4998,09/25.0/2021,2000,g 17.5,4.0
# From MPEC 2021-F20
406P/Gibbs,e,1.2135,11.4706,352.3881,3.574714,0.1458284,0.54204019,54.5751,09/25.0/2021,2000,g 17.0,4.0
# From MPEC 2021-F20
407P/PANSTARRS-Fuls,e,4.8887,80.7838,92.7390,3.462051,0.1530044,0.38442570,92.0509,09/25.0/2021,2000,g 14.0,4.0
# From MPEC 2021-S45
408P/Novichonok-Gerke,e,19.3401,189.4397,226.1649,4.757372,0.0949846,0.27077713,324.5485,09/25.0/2021,2000,g 11.0,4.0
# From MPEC 2021-O56
409P/LONEOS-Hill,e,17.1188,143.6716,15.1280,6.046303,0.0662932,0.70990164,15.9006,09/25.0/2021,2000,g 14.0,4.0
# From MPEC 2021-F20
410P/NEAT-LINEAR,e,9.3938,139.9802,313.0907,6.633334,0.0576908,0.51050060,5.3915,09/25.0/2021,2000,g 12.5,4.0
# From MPEC 2021-J28
411P/Christensen,e,12.3777,77.6685,46.6630,5.817334,0.0702454,0.58080866,17.1126,09/25.0/2021,2000,g 13.5,4.0
# From MPEC 2021-F20
412P/WISE,e,8.9312,0.8491,155.9180,3.109479,0.1797515,0.47975702,52.7836,09/25.0/2021,2000,g 17.0,4.0
# From MPEC 2021-O56
413P/Larson,e,15.9785,39.0256,186.0439,3.710096,0.1379197,0.42322549,9.2107,09/25.0/2021,2000,g 14.0,4.0
# From MPEC 2021-BE3
414P/STEREO,e,23.3839,257.7893,210.7292,2.794429,0.2109912,0.81162966,51.1922,09/25.0/2021,2000,g 19.0,4.0
# From MPEC 2021-N06
415P/Tenagra,e,31.7920,160.2948,346.2404,4.115328,0.1180585,0.19474307,26.2024,09/25.0/2021,2000,g 12.0,4.0
# From MPEC 2021-L04
416P/Scotti,e,3.3614,355.8124,134.5037,4.012915,0.1226067,0.45431880,27.1653,09/25.0/2021,2000,g 15.5,4.0
# From MPEC 2021-S45
417P/NEOWISE,e,8.1303,111.3495,129.4733,3.349428,0.1607860,0.55453408,25.0501,09/25.0/2021,2000,g 16.5,4.0
# From MPEC 2021-L04
418P/LINEAR,e,5.7974,277.6580,307.0996,5.080153,0.0860774,0.66479490,358.0576,09/25.0/2021,2000,g 13.0,4.0
# From MPEC 2021-S45
419P/PANSTARRS,e,2.8029,40.3898,187.5007,3.521205,0.1491651,0.27772994,355.1584,09/25.0/2021,2000,g 12.5,4.0
# From MPEC 2021-S45
420P/Hill,e,14.5030,173.9587,157.1254,5.522339,0.0759485,0.49508548,341.7960,09/25.0/2021,2000,g 11.5,4.0
# From MPEC 2021-L04
421P/McNaught,e,10.0803,55.3487,259.8222,5.075648,0.0861920,0.67558855,20.8737,09/25.0/2021,2000,g 14.0,4.0
# From MPEC 2021-S45
422P/Christensen,e,39.5320,36.0665,305.1454,6.319173,0.0620460,0.50860562,353.1217,09/25.0/2021,2000,g 11.0,4.0
# From MPEC 2021-N06
423P/Lemmon,e,8.3462,33.3137,80.4068,6.163833,0.0644062,0.12051407,0.3221,09/25.0/2021,2000,g 10.0,4.0
# From MPEC 2021-S45
424P/LaSagra,e,8.6853,51.1800,312.4728,4.415536,0.1062255,0.69138583,356.1085,09/25.0/2021,2000,g 17.0,4.0
# From MPEC 2021-S45
425P/Kowalski,e,16.4213,210.0881,200.7300,6.328815,0.0619043,0.54334613,0.2846,09/25.0/2021,2000,g 12.0,4.0
# From MPC107687
1I/`Oumuamua,h,09/09.4886/2017,122.6778,24.5997,241.6845,1.199252,0.255240,2000,23.0,2.0
# From MPEC 2020-K19
2I/Borisov,h,12/08.5549/2019,44.0527,308.1480,209.1251,3.356636,2.006548,2000,11.0,4.0
